STARLINK-2448           
1 48111U 21027V   26068.55167628  .00057247  00000+0  18961-2 0  9990
2 48111  53.1602 155.5804 0001744  65.6838 294.4345 15.30774816272648
2024-092D               
1 59776U 24092D   26068.88372108  .00024443  00000+0  76511-3 0  9999
2 59776  97.6418 198.2302 0008340 141.9853 218.1979 15.33078357100518
